{"type":"FeatureCollection","features":[{"type":"Feature","properties":{"name":"Soldier Field","kind":"stadium"},"geometry":{"type":"MultiPolygon","coordinates":[[[[-87.616274,41.861],[-87.615564,41.861439],[-87.615876,41.861121],[-87.616142,41.861001],[-87.616274,41.861]]],[[[-87.617016,41.861],[-87.617644,41.861306],[-87.617781,41.861567],[-87.617831,41.861766],[-87.617551,41.861272],[-87.617016,41.861]]],[[[-87.617861,41.861781],[-87.617743,41.861421],[-87.617899,41.861747],[-87.617993,41.86294],[-87.617955,41.862727],[-87.617879,41.862731],[-87.617341,41.863355],[-87.617153,41.861253],[-87.617806,41.861783],[-87.617861,41.861781]]],[[[-87.617904,41.862754],[-87.618043,41.863944],[-87.61796,41.863948],[-87.617904,41.862754]]],[[[-87.617114,41.861312],[-87.616025,41.863416],[-87.61573,41.862637],[-87.615762,41.861668],[-87.616279,41.861242],[-87.617114,41.861312]]],[[[-87.615416,41.862012],[-87.615699,41.862693],[-87.615537,41.862849],[-87.615561,41.863073],[-87.615416,41.862012]]],[[[-87.615665,41.863656],[-87.615691,41.864073],[-87.615571,41.86287],[-87.615665,41.863656]]]]}},{"type":"Feature","properties":{"name":"Soldier Field","kind":"stadium"},"geometry":{"type":"Polygon","coordinates":[[[-87.615463,41.861596],[-87.618043,41.863944],[-87.615691,41.864073],[-87.615463,41.861596]]]}},{"type":"Feature","properties":{"name":"Credit Union 1 Arena","kind":"stadium"},"geometry":{"type":"Polygon","coordinates":[[[-87.656722,41.875238],[-87.655602,41.874512],[-87.656659,41.874508],[-87.656722,41.875238]]]}},{"type":"Feature","properties":{"name":"United Center","kind":"stadium"},"geometry":{"type":"Polygon","coordinates":[[[-87.675045,41.880174],[-87.673322,41.88118],[-87.673242,41.880275],[-87.675045,41.880174]]]}},{"type":"Feature","properties":{"name":"Fifth Third Arena","kind":"stadium"},"geometry":{"type":"Polygon","coordinates":[[[-87.674939,41.877379],[-87.672248,41.876731],[-87.674924,41.876694],[-87.674939,41.877379]]]}},{"type":"Feature","properties":{"name":"Curtis Granderson Stadium","kind":"stadium"},"geometry":{"type":"Polygon","coordinates":[[[-87.648926,41.864943],[-87.649704,41.8649],[-87.649608,41.865373],[-87.648926,41.864943]]]}}]}