{"type":"FeatureCollection","features":[{"type":"Feature","properties":{"kind":"water"},"geometry":{"type":"MultiPolygon","coordinates":[[[[-87.62381,41.86868],[-87.623811,41.868706],[-87.623792,41.868693],[-87.62381,41.86868]]],[[[-87.635462,41.869881],[-87.635615,41.869752],[-87.635615,41.869881],[-87.635462,41.869881]]],[[[-87.676084,41.870286],[-87.676088,41.870317],[-87.676065,41.870303],[-87.676084,41.870286]]],[[[-87.635849,41.872097],[-87.638035,41.877006],[-87.637866,41.877043],[-87.637969,41.877445],[-87.637982,41.877427],[-87.638101,41.877414],[-87.638062,41.878202],[-87.638555,41.879462],[-87.638675,41.880868],[-87.638572,41.883102],[-87.638104,41.885876],[-87.644512,41.894119],[-87.644643,41.897038],[-87.649426,41.898036],[-87.656028,41.901],[-87.646733,41.901],[-87.643963,41.8972],[-87.643816,41.896584],[-87.643721,41.894235],[-87.641383,41.892316],[-87.640805,41.89156],[-87.64066,41.891138],[-87.639068,41.889233],[-87.638392,41.887328],[-87.637722,41.887012],[-87.636057,41.887837],[-87.62832,41.887943],[-87.627828,41.887846],[-87.624903,41.889316],[-87.617665,41.888663],[-87.612539,41.889091],[-87.617352,41.890513],[-87.611486,41.890636],[-87.611292,41.88928],[-87.607821,41.888525],[-87.604749,41.888575],[-87.598543,41.891453],[-87.609819,41.892227],[-87.602448,41.896406],[-87.610216,41.896258],[-87.613865,41.893334],[-87.619163,41.901],[-87.596,41.897703],[-87.596,41.861],[-87.616236,41.868901],[-87.616384,41.882083],[-87.610125,41.887182],[-87.610313,41.88408],[-87.610101,41.883785],[-87.610217,41.877034],[-87.610097,41.876892],[-87.602522,41.888388],[-87.61227,41.887264],[-87.624644,41.888627],[-87.627483,41.887271],[-87.635436,41.887167],[-87.635885,41.887028],[-87.637956,41.880531],[-87.634628,41.872004],[-87.634863,41.870701],[-87.634592,41.869974],[-87.634233,41.866159],[-87.634159,41.861],[-87.634899,41.861],[-87.63509,41.867109],[-87.635046,41.867437],[-87.635109,41.867517],[-87.635451,41.869924],[-87.635849,41.872097]],[[-87.61028,41.87485],[-87.610223,41.876532],[-87.610211,41.876895],[-87.61028,41.87485]],[[-87.61028,41.87485],[-87.611567,41.872626],[-87.61485,41.868867],[-87.610108,41.874147],[-87.61014,41.874859],[-87.61028,41.87485]],[[-87.634398,41.867108],[-87.634425,41.86713],[-87.634431,41.867113],[-87.634398,41.867108]],[[-87.63441,41.867505],[-87.634425,41.867532],[-87.634438,41.867517],[-87.63441,41.867505]],[[-87.634851,41.870866],[-87.635031,41.871315],[-87.634915,41.870829],[-87.634851,41.870866]],[[-87.63504,41.867095],[-87.635067,41.867117],[-87.635073,41.867099],[-87.63504,41.867095]],[[-87.635055,41.867504],[-87.635071,41.867531],[-87.635082,41.867512],[-87.635055,41.867504]],[[-87.635678,41.874306],[-87.635657,41.87429],[-87.635656,41.874304],[-87.635678,41.874306]],[[-87.636155,41.875391],[-87.63614,41.875412],[-87.636164,41.875402],[-87.636155,41.875391]],[[-87.636385,41.874623],[-87.636364,41.874607],[-87.636363,41.874621],[-87.636385,41.874623]],[[-87.637224,41.875858],[-87.637245,41.875878],[-87.637252,41.875866],[-87.637224,41.875858]],[[-87.637418,41.877914],[-87.637418,41.87794],[-87.637429,41.877932],[-87.637418,41.877914]],[[-87.637492,41.878218],[-87.637467,41.878206],[-87.637466,41.878217],[-87.637492,41.878218]],[[-87.637615,41.884595],[-87.637642,41.884616],[-87.637647,41.884599],[-87.637615,41.884595]],[[-87.637669,41.884228],[-87.637686,41.884254],[-87.637698,41.884239],[-87.637669,41.884228]],[[-87.637726,41.876648],[-87.637696,41.876663],[-87.637726,41.876664],[-87.637726,41.876648]],[[-87.637767,41.876948],[-87.637788,41.876968],[-87.637791,41.876952],[-87.637767,41.876948]],[[-87.637782,41.879143],[-87.637794,41.879163],[-87.637813,41.879145],[-87.637782,41.879143]],[[-87.637808,41.883082],[-87.637825,41.883102],[-87.63783,41.883088],[-87.637808,41.883082]],[[-87.637815,41.883317],[-87.637832,41.883336],[-87.637837,41.883322],[-87.637815,41.883317]],[[-87.637977,41.877479],[-87.638002,41.877604],[-87.637986,41.877455],[-87.637977,41.877479]],[[-87.63801,41.877934],[-87.638011,41.877961],[-87.638024,41.877954],[-87.63801,41.877934]],[[-87.638013,41.877433],[-87.638041,41.877453],[-87.638037,41.877431],[-87.638013,41.877433]],[[-87.63806,41.878225],[-87.638034,41.878224],[-87.638047,41.87823],[-87.63806,41.878225]],[[-87.638039,41.877564],[-87.638059,41.877539],[-87.638035,41.877541],[-87.638039,41.877564]],[[-87.638096,41.885562],[-87.638117,41.885579],[-87.638122,41.885565],[-87.638096,41.885562]],[[-87.638258,41.88462],[-87.63824,41.884637],[-87.638263,41.884633],[-87.638258,41.88462]],[[-87.638376,41.883032],[-87.638397,41.883049],[-87.638402,41.883035],[-87.638376,41.883032]],[[-87.638382,41.883328],[-87.638403,41.883345],[-87.638408,41.883331],[-87.638382,41.883328]],[[-87.638396,41.879185],[-87.638409,41.879205],[-87.638427,41.879187],[-87.638396,41.879185]],[[-87.638454,41.879502],[-87.638446,41.879522],[-87.638457,41.879514],[-87.638454,41.879502]],[[-87.638493,41.8795],[-87.638482,41.879514],[-87.638501,41.879506],[-87.638493,41.8795]],[[-87.638529,41.882791],[-87.63855,41.882808],[-87.638555,41.882794],[-87.638529,41.882791]],[[-87.638535,41.880447],[-87.638537,41.880469],[-87.63855,41.88046],[-87.638535,41.880447]],[[-87.638551,41.880729],[-87.63855,41.880757],[-87.638566,41.880737],[-87.638551,41.880729]],[[-87.638555,41.882565],[-87.638567,41.882587],[-87.638578,41.882575],[-87.638555,41.882565]],[[-87.638548,41.881706],[-87.63857,41.881714],[-87.638569,41.881705],[-87.638548,41.881706]],[[-87.638559,41.882073],[-87.638571,41.882095],[-87.638582,41.882083],[-87.638559,41.882073]],[[-87.638602,41.880417],[-87.638602,41.880433],[-87.638611,41.880429],[-87.638602,41.880417]],[[-87.638607,41.880768],[-87.638608,41.880785],[-87.638616,41.880772],[-87.638607,41.880768]],[[-87.63881,41.888403],[-87.639051,41.888582],[-87.638975,41.888394],[-87.63881,41.888403]],[[-87.638973,41.888392],[-87.638969,41.888376],[-87.63896,41.888382],[-87.638973,41.888392]],[[-87.639074,41.888643],[-87.639056,41.88865],[-87.639068,41.888653],[-87.639074,41.888643]],[[-87.639216,41.888974],[-87.639211,41.888957],[-87.639202,41.888963],[-87.639216,41.888974]],[[-87.639254,41.889274],[-87.639236,41.889281],[-87.639248,41.889284],[-87.639254,41.889274]],[[-87.639254,41.888979],[-87.639249,41.888962],[-87.63924,41.888968],[-87.639254,41.888979]],[[-87.639298,41.889245],[-87.639281,41.889252],[-87.639292,41.889254],[-87.639298,41.889245]],[[-87.639337,41.889207],[-87.639319,41.889214],[-87.639331,41.889217],[-87.639337,41.889207]],[[-87.639413,41.888427],[-87.639396,41.888433],[-87.639407,41.888436],[-87.639413,41.888427]],[[-87.639464,41.888609],[-87.639416,41.888463],[-87.639422,41.888446],[-87.639405,41.88846],[-87.639464,41.888609]],[[-87.640844,41.891316],[-87.640839,41.891299],[-87.64083,41.891305],[-87.640844,41.891316]],[[-87.640901,41.891562],[-87.640883,41.891568],[-87.640895,41.891571],[-87.640901,41.891562]],[[-87.641361,41.891287],[-87.641357,41.89127],[-87.641348,41.891276],[-87.641361,41.891287]],[[-87.641443,41.891525],[-87.641425,41.891531],[-87.641437,41.891534],[-87.641443,41.891525]],[[-87.64391,41.896337],[-87.643883,41.896336],[-87.643888,41.896344],[-87.64391,41.896337]],[[-87.643906,41.896593],[-87.643908,41.896612],[-87.643918,41.896603],[-87.643906,41.896593]],[[-87.644464,41.896292],[-87.644466,41.896311],[-87.644476,41.896302],[-87.644464,41.896292]],[[-87.644502,41.896587],[-87.644476,41.896586],[-87.64448,41.896594],[-87.644502,41.896587]],[[-87.647572,41.897778],[-87.647571,41.897801],[-87.647588,41.89779],[-87.647572,41.897778]],[[-87.647642,41.898189],[-87.647641,41.898212],[-87.647658,41.898201],[-87.647642,41.898189]],[[-87.611234,41.88795],[-87.611199,41.887953],[-87.611208,41.887963],[-87.611234,41.88795]],[[-87.611967,41.88795],[-87.611983,41.887941],[-87.611968,41.887941],[-87.611967,41.88795]],[[-87.612382,41.887949],[-87.612396,41.887937],[-87.612379,41.88794],[-87.612382,41.887949]],[[-87.613562,41.890431],[-87.613539,41.890436],[-87.613554,41.890443],[-87.613562,41.890431]],[[-87.613771,41.888142],[-87.613743,41.88813],[-87.613753,41.888142],[-87.613771,41.888142]],[[-87.613794,41.888725],[-87.61376,41.888728],[-87.613784,41.888739],[-87.613794,41.888725]],[[-87.614358,41.888107],[-87.614365,41.888132],[-87.614378,41.888119],[-87.614358,41.888107]],[[-87.614383,41.888711],[-87.614378,41.888737],[-87.614397,41.888723],[-87.614383,41.888711]],[[-87.620234,41.888816],[-87.620206,41.888801],[-87.620204,41.888816],[-87.620234,41.888816]],[[-87.620863,41.888875],[-87.620835,41.888859],[-87.620833,41.888874],[-87.620863,41.888875]],[[-87.624114,41.889099],[-87.62408,41.889091],[-87.624089,41.889108],[-87.624114,41.889099]],[[-87.624538,41.889161],[-87.624509,41.889145],[-87.624508,41.88916],[-87.624538,41.889161]],[[-87.626851,41.888282],[-87.626823,41.888266],[-87.626821,41.888282],[-87.626851,41.888282]],[[-87.630841,41.887778],[-87.630846,41.887755],[-87.630826,41.887765],[-87.630841,41.887778]],[[-87.631291,41.88778],[-87.631295,41.887757],[-87.631277,41.887767],[-87.631291,41.88778]],[[-87.632271,41.887793],[-87.632242,41.887777],[-87.632241,41.887792],[-87.632271,41.887793]],[[-87.632788,41.887783],[-87.632753,41.887779],[-87.632764,41.887792],[-87.632788,41.887783]],[[-87.633846,41.887838],[-87.633811,41.887834],[-87.633822,41.887848],[-87.633846,41.887838]],[[-87.634197,41.887838],[-87.634169,41.887822],[-87.634167,41.887838],[-87.634197,41.887838]],[[-87.636133,41.887569],[-87.636135,41.887577],[-87.636249,41.887581],[-87.636133,41.887569]],[[-87.636292,41.887648],[-87.636268,41.887637],[-87.636276,41.887648],[-87.636292,41.887648]],[[-87.612421,41.883854],[-87.611292,41.883943],[-87.612671,41.883935],[-87.612421,41.883854]],[[-87.602256,41.893318],[-87.602271,41.893301],[-87.602252,41.893309],[-87.602256,41.893318]],[[-87.602313,41.893268],[-87.602328,41.893251],[-87.602309,41.893259],[-87.602313,41.893268]],[[-87.602368,41.893231],[-87.602382,41.893214],[-87.602363,41.893222],[-87.602368,41.893231]],[[-87.60251,41.893232],[-87.602525,41.893215],[-87.602505,41.893224],[-87.60251,41.893232]],[[-87.602653,41.893228],[-87.602668,41.893211],[-87.602649,41.893219],[-87.602653,41.893228]],[[-87.614583,41.868976],[-87.614561,41.868997],[-87.614587,41.868993],[-87.614583,41.868976]]],[[[-87.596,41.901],[-87.599351,41.899367],[-87.603043,41.901],[-87.596,41.901]]],[[[-87.632707,41.875915],[-87.632711,41.875992],[-87.632662,41.875948],[-87.632707,41.875915]]],[[[-87.637968,41.877341],[-87.638088,41.877166],[-87.638093,41.877328],[-87.637968,41.877341]]],[[[-87.631846,41.877916],[-87.631827,41.877952],[-87.631815,41.877925],[-87.631846,41.877916]]],[[[-87.623791,41.878757],[-87.623541,41.878842],[-87.62354,41.878759],[-87.623791,41.878757]]],[[[-87.631775,41.880522],[-87.631754,41.880579],[-87.631726,41.880547],[-87.631775,41.880522]]],[[[-87.630195,41.881105],[-87.63007,41.8812],[-87.630069,41.881106],[-87.630195,41.881105]]],[[[-87.623669,41.881183],[-87.623825,41.881182],[-87.623834,41.881793],[-87.623678,41.881794],[-87.623669,41.881183]],[[-87.623775,41.881235],[-87.623696,41.881276],[-87.623775,41.881275],[-87.623775,41.881235]],[[-87.623794,41.881737],[-87.623712,41.881696],[-87.623713,41.881738],[-87.623794,41.881737]]],[[[-87.63039,41.883459],[-87.630591,41.883607],[-87.630392,41.883609],[-87.63039,41.883459]]],[[[-87.623758,41.883921],[-87.62387,41.884007],[-87.623744,41.883991],[-87.623758,41.883921]]],[[[-87.632975,41.887124],[-87.633486,41.887082],[-87.633487,41.887124],[-87.632975,41.887124]]],[[[-87.627178,41.887076],[-87.627151,41.887144],[-87.627139,41.88708],[-87.627178,41.887076]]],[[[-87.626901,41.887225],[-87.626964,41.88731],[-87.626876,41.887245],[-87.626901,41.887225]]],[[[-87.637975,41.887608],[-87.637883,41.887643],[-87.637883,41.887609],[-87.637975,41.887608]]],[[[-87.630181,41.888495],[-87.630238,41.888516],[-87.630182,41.888517],[-87.630181,41.888495]]],[[[-87.640609,41.891262],[-87.640589,41.891295],[-87.640574,41.891277],[-87.640609,41.891262]]],[[[-87.623926,41.896889],[-87.623912,41.896924],[-87.623896,41.896904],[-87.623926,41.896889]]],[[[-87.624702,41.897146],[-87.624693,41.897184],[-87.624674,41.897164],[-87.624702,41.897146]]],[[[-87.648271,41.897687],[-87.648066,41.89755],[-87.648299,41.897583],[-87.648271,41.897687]]],[[[-87.649565,41.897938],[-87.649121,41.897764],[-87.649595,41.897881],[-87.649565,41.897938]]],[[[-87.623928,41.899105],[-87.623858,41.898837],[-87.623915,41.898515],[-87.623928,41.899105]]],[[[-87.63056,41.899315],[-87.630615,41.899233],[-87.630645,41.899287],[-87.63056,41.899315]]],[[[-87.623363,41.871935],[-87.623329,41.871853],[-87.623399,41.87189],[-87.623363,41.871935]]],[[[-87.619263,41.874438],[-87.619231,41.874483],[-87.619217,41.874453],[-87.619263,41.874438]]],[[[-87.618647,41.874443],[-87.618614,41.874489],[-87.6186,41.874458],[-87.618647,41.874443]]],[[[-87.61896,41.875416],[-87.618982,41.876188],[-87.618456,41.87583],[-87.61896,41.875416]]],[[[-87.619327,41.877103],[-87.619293,41.87715],[-87.619279,41.877119],[-87.619327,41.877103]]],[[[-87.618709,41.877111],[-87.618675,41.877157],[-87.618661,41.877126],[-87.618709,41.877111]]],[[[-87.623458,41.878845],[-87.623346,41.878776],[-87.623444,41.87875],[-87.623458,41.878845]]],[[[-87.621135,41.879293],[-87.621025,41.879766],[-87.621014,41.879388],[-87.621135,41.879293]]],[[[-87.621793,41.879548],[-87.62196,41.879637],[-87.621795,41.879638],[-87.621793,41.879548]]],[[[-87.62196,41.880993],[-87.621391,41.88186],[-87.621895,41.880994],[-87.62196,41.880993]]],[[[-87.621583,41.884641],[-87.621823,41.88473],[-87.621583,41.884704],[-87.621583,41.884641]]],[[[-87.621468,41.884705],[-87.621207,41.884643],[-87.621465,41.884639],[-87.621468,41.884705]]],[[[-87.621448,41.884819],[-87.621424,41.884793],[-87.621527,41.884756],[-87.621659,41.88484],[-87.621616,41.88484],[-87.621603,41.884819],[-87.621575,41.884799],[-87.621543,41.884789],[-87.621509,41.884789],[-87.621472,41.884801],[-87.621448,41.884819]]],[[[-87.621552,41.884795],[-87.621486,41.884915],[-87.62144,41.884843],[-87.621552,41.884795]]],[[[-87.621639,41.884911],[-87.621546,41.884924],[-87.621661,41.884867],[-87.621639,41.884911]]],[[[-87.621438,41.884929],[-87.621435,41.884874],[-87.62151,41.884953],[-87.621438,41.884929]]],[[[-87.622138,41.885354],[-87.622162,41.885204],[-87.622165,41.885354],[-87.622138,41.885354]]],[[[-87.620906,41.885376],[-87.62093,41.885217],[-87.620932,41.885376],[-87.620906,41.885376]]],[[[-87.62346,41.885391],[-87.623546,41.885431],[-87.623462,41.885436],[-87.62346,41.885391]]],[[[-87.623077,41.885431],[-87.623171,41.885402],[-87.62316,41.88544],[-87.623077,41.885431]]],[[[-87.61895,41.886078],[-87.618921,41.88618],[-87.618869,41.886105],[-87.61895,41.886078]]],[[[-87.618791,41.886131],[-87.618755,41.886221],[-87.618708,41.886158],[-87.618791,41.886131]]],[[[-87.618547,41.886209],[-87.61867,41.88624],[-87.618584,41.886258],[-87.618547,41.886209]]],[[[-87.621758,41.890265],[-87.621852,41.890709],[-87.621773,41.89071],[-87.621758,41.890265]]],[[[-87.621829,41.890947],[-87.621805,41.89101],[-87.621776,41.890976],[-87.621829,41.890947]]],[[[-87.614082,41.862381],[-87.614138,41.862447],[-87.614127,41.862509],[-87.614082,41.862381]]],[[[-87.610369,41.861],[-87.612699,41.865854],[-87.610589,41.865877],[-87.610369,41.861]]],[[[-87.617402,41.863692],[-87.617415,41.863691],[-87.617336,41.86429],[-87.617402,41.863692]]],[[[-87.613857,41.866534],[-87.61398,41.866457],[-87.614071,41.86644],[-87.61408,41.866522],[-87.614046,41.866566],[-87.613917,41.866562],[-87.613857,41.866534]],[[-87.613982,41.866549],[-87.613882,41.866525],[-87.613876,41.866541],[-87.613982,41.866549]],[[-87.614011,41.86656],[-87.614017,41.866473],[-87.613967,41.866481],[-87.614011,41.86656]]],[[[-87.613759,41.86687],[-87.613793,41.866799],[-87.613902,41.866847],[-87.613759,41.86687]]],[[[-87.614707,41.867188],[-87.61463,41.867091],[-87.614747,41.867125],[-87.614707,41.867188]]],[[[-87.617222,41.885766],[-87.617114,41.885739],[-87.617218,41.885741],[-87.617222,41.885766]]],[[[-87.616959,41.885796],[-87.616938,41.885746],[-87.617048,41.885785],[-87.616959,41.885796]]],[[[-87.616787,41.885821],[-87.61685,41.885751],[-87.616876,41.885807],[-87.616787,41.885821]]],[[[-87.616702,41.885834],[-87.616582,41.885773],[-87.616673,41.885764],[-87.616702,41.885834]]],[[[-87.616499,41.885785],[-87.616448,41.885885],[-87.616409,41.885798],[-87.616499,41.885785]]],[[[-87.618467,41.886231],[-87.618411,41.886291],[-87.618381,41.886253],[-87.618467,41.886231]]],[[[-87.61823,41.886318],[-87.6183,41.886271],[-87.618321,41.886305],[-87.61823,41.886318]]],[[[-87.612707,41.887267],[-87.612726,41.887297],[-87.612694,41.887284],[-87.612707,41.887267]]],[[[-87.617614,41.888804],[-87.617611,41.888776],[-87.617766,41.888734],[-87.617614,41.888804]]],[[[-87.61767,41.888856],[-87.6178,41.888748],[-87.617839,41.888762],[-87.61767,41.888856]]],[[[-87.617455,41.888828],[-87.617423,41.888754],[-87.617561,41.88886],[-87.617455,41.888828]]],[[[-87.617621,41.888814],[-87.617601,41.888881],[-87.617569,41.888847],[-87.617621,41.888814]]],[[[-87.610683,41.891735],[-87.610491,41.89159],[-87.610699,41.891618],[-87.610683,41.891735]]],[[[-87.61109,41.89361],[-87.61064,41.89382],[-87.610645,41.893622],[-87.61109,41.89361]]],[[[-87.61001,41.894001],[-87.609672,41.894187],[-87.609663,41.89403],[-87.61001,41.894001]]],[[[-87.610939,41.894292],[-87.610674,41.89435],[-87.610756,41.894232],[-87.610939,41.894292]]],[[[-87.609724,41.895035],[-87.609594,41.895214],[-87.609538,41.895089],[-87.609724,41.895035]]],[[[-87.610141,41.895516],[-87.609737,41.895599],[-87.609866,41.895399],[-87.610141,41.895516]]]]}}]}